[{"OBJECT_NAME":"PRAETORIAN SDA_603","OBJECT_ID":"2025-203B","EPOCH":"2026-03-09T13:37:04.528992","MEAN_MOTION":13.83903559,"ECCENTRICITY":0.001079,"INCLINATION":81.3003,"RA_OF_ASC_NODE":102.8981,"ARG_OF_PERICENTER":102.3539,"MEAN_ANOMALY":257.8826,"EPHEMERIS_TYPE":0,"CLASSIFICATION_TYPE":"U","NORAD_CAT_ID":65566,"ELEMENT_SET_NO":999,"REV_AT_EPOCH":2492,"BSTAR":0.0001631,"MEAN_MOTION_DOT":1.93e-6,"MEAN_MOTION_DDOT":0},{"OBJECT_NAME":"COSMOS 1275 DEB","OBJECT_ID":"1981-053LS","EPOCH":"2026-03-09T05:39:12.797856","MEAN_MOTION":14.00511016,"ECCENTRICITY":0.00704178,"INCLINATION":83.2885,"RA_OF_ASC_NODE":153.6419,"ARG_OF_PERICENTER":248.5738,"MEAN_ANOMALY":110.7912,"EPHEMERIS_TYPE":0,"CLASSIFICATION_TYPE":"U","NORAD_CAT_ID":18505,"ELEMENT_SET_NO":999,"REV_AT_EPOCH":5931,"BSTAR":0.0018803558,"MEAN_MOTION_DOT":2.866e-5,"MEAN_MOTION_DDOT":0}]
